STARLINK-32709          
1 62439U 24251H   26001.21667757  .00057099  00000+0  19239-2 0  9993
2 62439  53.1587 289.0215 0001089  60.7706 299.3404 15.30222964 57610
STARLINK-32689          
1 62440U 24251J   26001.28821403  .00040114  00000+0  13588-2 0  9993
2 62440  53.1592 288.0408 0001115  64.0390 296.0725 15.30210123 57633
STARLINK-32724          
1 62441U 24251K   26001.17868892  .00042713  00000+0  14457-2 0  9998
2 62441  53.1620 288.7851 0000912 124.7157 235.3930 15.30206702 57456
STARLINK-32291          
1 62442U 24251L   26001.25245733  .00044030  00000+0  14885-2 0  9990
2 62442  53.1611 288.5304 0001508 101.9750 258.1420 15.30231565 57313
STARLINK-32736          
1 62443U 24251M   25365.99857496  .00069383  00000+0  23299-2 0  9996
2 62443  53.1611 289.7929 0001097  99.3583 260.7542 15.30242409 57422
STARLINK-32737          
1 62444U 24251N   26001.17288319  .00050702  00000+0  17127-2 0  9995
2 62444  53.1602 286.6137 0001030 107.2395 252.8719 15.30192688 57642
STARLINK-32683          
1 62445U 24251P   26001.27777072  .00039370  00000+0  13333-2 0  9999
2 62445  53.1589 288.6850 0001223  67.4046 292.7084 15.30225809 57623
STARLINK-32726          
1 62446U 24251Q   26001.17763488  .00038878  00000+0  13175-2 0  9991
2 62446  53.1616 288.7718 0001083  76.9433 283.1689 15.30210726 57300
STARLINK-32730          
1 62447U 24251R   26001.17024662  .00029020  00000+0  98826-3 0  9992
2 62447  53.1604 288.7226 0001078 110.6407 249.4709 15.30195002 57614
STARLINK-32719          
1 62448U 24251S   26001.16715241  .00053889  00000+0  18148-2 0  9990
2 62448  53.1605 289.2690 0000474  71.0168 289.0884 15.30265579 57431
STARLINK-32723          
1 62449U 24251T   26001.17974421  .00040448  00000+0  13701-2 0  9996
2 62449  53.1618 288.7885 0001107  91.6800 268.4327 15.30206131 57455
STARLINK-32722          
1 62450U 24251U   26001.23978166  .00044395  00000+0  15018-2 0  9993
2 62450  53.1609 288.4460 0001168  88.9100 271.2035 15.30207481 57257
STARLINK-32720          
1 62451U 24251V   26001.20507228  .00067322  00000+0  22630-2 0  9991
2 62451  53.1597 288.9479 0001287  63.9738 296.1395 15.30223181 57240
STARLINK-32656          
1 62452U 24251W   26001.08921455  .00027874  00000+0  94962-3 0  9996
2 62452  53.1594 289.6415 0001162  86.5154 273.5979 15.30202877 57438
STARLINK-32690          
1 62453U 24251X   26001.17129998  .00057457  00000+0  19363-2 0  9990
2 62453  53.1606 288.7312 0000946 104.7565 255.3540 15.30213277 57233
STARLINK-11518 [DTC]    
1 62462U 24254A   25365.12654137  .00205389  00000+0  15596-2 0  9991
2 62462  42.9993 276.6522 0002127 264.4110  95.6515 15.70920798 58628
