[{"OBJECT_NAME":"STARLINK-32709","OBJECT_ID":"2024-251H","EPOCH":"2026-01-01T05:12:00.942048","MEAN_MOTION":15.30222964,"ECCENTRICITY":0.00010891,"INCLINATION":53.1587,"RA_OF_ASC_NODE":289.0215,"ARG_OF_PERICENTER":60.7706,"MEAN_ANOMALY":299.3404,"EPHEMERIS_TYPE":0,"CLASSIFICATION_TYPE":"U","NORAD_CAT_ID":62439,"ELEMENT_SET_NO":999,"REV_AT_EPOCH":5761,"BSTAR":0.0019238515,"MEAN_MOTION_DOT":0.00057099,"MEAN_MOTION_DDOT":0},{"OBJECT_NAME":"STARLINK-32689","OBJECT_ID":"2024-251J","EPOCH":"2026-01-01T06:55:01.692192","MEAN_MOTION":15.30210123,"ECCENTRICITY":0.00011156,"INCLINATION":53.1592,"RA_OF_ASC_NODE":288.0408,"ARG_OF_PERICENTER":64.039,"MEAN_ANOMALY":296.0725,"EPHEMERIS_TYPE":0,"CLASSIFICATION_TYPE":"U","NORAD_CAT_ID":62440,"ELEMENT_SET_NO":999,"REV_AT_EPOCH":5763,"BSTAR":0.0013587789,"MEAN_MOTION_DOT":0.00040114,"MEAN_MOTION_DDOT":0},{"OBJECT_NAME":"STARLINK-32724","OBJECT_ID":"2024-251K","EPOCH":"2026-01-01T04:17:18.722688","MEAN_MOTION":15.30206702,"ECCENTRICITY":9.12e-5,"INCLINATION":53.162,"RA_OF_ASC_NODE":288.7851,"ARG_OF_PERICENTER":124.7157,"MEAN_ANOMALY":235.393,"EPHEMERIS_TYPE":0,"CLASSIFICATION_TYPE":"U","NORAD_CAT_ID":62441,"ELEMENT_SET_NO":999,"REV_AT_EPOCH":5745,"BSTAR":0.0014456909,"MEAN_MOTION_DOT":0.00042713,"MEAN_MOTION_DDOT":0},{"OBJECT_NAME":"STARLINK-32291","OBJECT_ID":"2024-251L","EPOCH":"2026-01-01T06:03:32.313312","MEAN_MOTION":15.30231565,"ECCENTRICITY":0.00015089,"INCLINATION":53.1611,"RA_OF_ASC_NODE":288.5304,"ARG_OF_PERICENTER":101.975,"MEAN_ANOMALY":258.142,"EPHEMERIS_TYPE":0,"CLASSIFICATION_TYPE":"U","NORAD_CAT_ID":62442,"ELEMENT_SET_NO":999,"REV_AT_EPOCH":5731,"BSTAR":0.0014884789,"MEAN_MOTION_DOT":0.0004403,"MEAN_MOTION_DDOT":0},{"OBJECT_NAME":"STARLINK-32736","OBJECT_ID":"2024-251M","EPOCH":"2025-12-31T23:57:56.876544","MEAN_MOTION":15.30242409,"ECCENTRICITY":0.00010973,"INCLINATION":53.1611,"RA_OF_ASC_NODE":289.7929,"ARG_OF_PERICENTER":99.3583,"MEAN_ANOMALY":260.7542,"EPHEMERIS_TYPE":0,"CLASSIFICATION_TYPE":"U","NORAD_CAT_ID":62443,"ELEMENT_SET_NO":999,"REV_AT_EPOCH":5742,"BSTAR":0.0023298999,"MEAN_MOTION_DOT":0.00069383,"MEAN_MOTION_DDOT":0},{"OBJECT_NAME":"STARLINK-32737","OBJECT_ID":"2024-251N","EPOCH":"2026-01-01T04:08:57.107616","MEAN_MOTION":15.30192688,"ECCENTRICITY":0.00010306,"INCLINATION":53.1602,"RA_OF_ASC_NODE":286.6137,"ARG_OF_PERICENTER":107.2395,"MEAN_ANOMALY":252.8719,"EPHEMERIS_TYPE":0,"CLASSIFICATION_TYPE":"U","NORAD_CAT_ID":62444,"ELEMENT_SET_NO":999,"REV_AT_EPOCH":5764,"BSTAR":0.0017127443,"MEAN_MOTION_DOT":0.00050702,"MEAN_MOTION_DDOT":0},{"OBJECT_NAME":"STARLINK-32683","OBJECT_ID":"2024-251P","EPOCH":"2026-01-01T06:39:59.390208","MEAN_MOTION":15.30225809,"ECCENTRICITY":0.00012235,"INCLINATION":53.1589,"RA_OF_ASC_NODE":288.685,"ARG_OF_PERICENTER":67.4046,"MEAN_ANOMALY":292.7084,"EPHEMERIS_TYPE":0,"CLASSIFICATION_TYPE":"U","NORAD_CAT_ID":62445,"ELEMENT_SET_NO":999,"REV_AT_EPOCH":5762,"BSTAR":0.0013332818,"MEAN_MOTION_DOT":0.0003937,"MEAN_MOTION_DDOT":0},{"OBJECT_NAME":"STARLINK-32726","OBJECT_ID":"2024-251Q","EPOCH":"2026-01-01T04:15:47.653632","MEAN_MOTION":15.30210726,"ECCENTRICITY":0.00010836,"INCLINATION":53.1616,"RA_OF_ASC_NODE":288.7718,"ARG_OF_PERICENTER":76.9433,"MEAN_ANOMALY":283.1689,"EPHEMERIS_TYPE":0,"CLASSIFICATION_TYPE":"U","NORAD_CAT_ID":62446,"ELEMENT_SET_NO":999,"REV_AT_EPOCH":5730,"BSTAR":0.0013174902,"MEAN_MOTION_DOT":0.00038878,"MEAN_MOTION_DDOT":0},{"OBJECT_NAME":"STARLINK-32730","OBJECT_ID":"2024-251R","EPOCH":"2026-01-01T04:05:09.307968","MEAN_MOTION":15.30195002,"ECCENTRICITY":0.00010781,"INCLINATION":53.1604,"RA_OF_ASC_NODE":288.7226,"ARG_OF_PERICENTER":110.6407,"MEAN_ANOMALY":249.4709,"EPHEMERIS_TYPE":0,"CLASSIFICATION_TYPE":"U","NORAD_CAT_ID":62447,"ELEMENT_SET_NO":999,"REV_AT_EPOCH":5761,"BSTAR":0.00098826295,"MEAN_MOTION_DOT":0.0002902,"MEAN_MOTION_DDOT":0},{"OBJECT_NAME":"STARLINK-32719","OBJECT_ID":"2024-251S","EPOCH":"2026-01-01T04:00:41.968224","MEAN_MOTION":15.30265579,"ECCENTRICITY":4.744e-5,"INCLINATION":53.1605,"RA_OF_ASC_NODE":289.269,"ARG_OF_PERICENTER":71.0168,"MEAN_ANOMALY":289.0884,"EPHEMERIS_TYPE":0,"CLASSIFICATION_TYPE":"U","NORAD_CAT_ID":62448,"ELEMENT_SET_NO":999,"REV_AT_EPOCH":5743,"BSTAR":0.0018147779,"MEAN_MOTION_DOT":0.00053889,"MEAN_MOTION_DDOT":0},{"OBJECT_NAME":"STARLINK-32723","OBJECT_ID":"2024-251T","EPOCH":"2026-01-01T04:18:49.899744","MEAN_MOTION":15.30206131,"ECCENTRICITY":0.00011078,"INCLINATION":53.1618,"RA_OF_ASC_NODE":288.7885,"ARG_OF_PERICENTER":91.68,"MEAN_ANOMALY":268.4327,"EPHEMERIS_TYPE":0,"CLASSIFICATION_TYPE":"U","NORAD_CAT_ID":62449,"ELEMENT_SET_NO":999,"REV_AT_EPOCH":5745,"BSTAR":0.0013700991,"MEAN_MOTION_DOT":0.00040448,"MEAN_MOTION_DDOT":0},{"OBJECT_NAME":"STARLINK-32722","OBJECT_ID":"2024-251U","EPOCH":"2026-01-01T05:45:17.135424","MEAN_MOTION":15.30207481,"ECCENTRICITY":0.00011685,"INCLINATION":53.1609,"RA_OF_ASC_NODE":288.446,"ARG_OF_PERICENTER":88.91,"MEAN_ANOMALY":271.2035,"EPHEMERIS_TYPE":0,"CLASSIFICATION_TYPE":"U","NORAD_CAT_ID":62450,"ELEMENT_SET_NO":999,"REV_AT_EPOCH":5725,"BSTAR":0.001501779,"MEAN_MOTION_DOT":0.00044395,"MEAN_MOTION_DDOT":0},{"OBJECT_NAME":"STARLINK-32720","OBJECT_ID":"2024-251V","EPOCH":"2026-01-01T04:55:18.244992","MEAN_MOTION":15.30223181,"ECCENTRICITY":0.0001287,"INCLINATION":53.1597,"RA_OF_ASC_NODE":288.9479,"ARG_OF_PERICENTER":63.9738,"MEAN_ANOMALY":296.1395,"EPHEMERIS_TYPE":0,"CLASSIFICATION_TYPE":"U","NORAD_CAT_ID":62451,"ELEMENT_SET_NO":999,"REV_AT_EPOCH":5724,"BSTAR":0.0022630221,"MEAN_MOTION_DOT":0.00067322,"MEAN_MOTION_DDOT":0},{"OBJECT_NAME":"STARLINK-32656","OBJECT_ID":"2024-251W","EPOCH":"2026-01-01T02:08:28.137120","MEAN_MOTION":15.30202877,"ECCENTRICITY":0.00011623,"INCLINATION":53.1594,"RA_OF_ASC_NODE":289.6415,"ARG_OF_PERICENTER":86.5154,"MEAN_ANOMALY":273.5979,"EPHEMERIS_TYPE":0,"CLASSIFICATION_TYPE":"U","NORAD_CAT_ID":62452,"ELEMENT_SET_NO":999,"REV_AT_EPOCH":5743,"BSTAR":0.00094961996,"MEAN_MOTION_DOT":0.00027874,"MEAN_MOTION_DDOT":0},{"OBJECT_NAME":"STARLINK-32690","OBJECT_ID":"2024-251X","EPOCH":"2026-01-01T04:06:40.318272","MEAN_MOTION":15.30213277,"ECCENTRICITY":9.466e-5,"INCLINATION":53.1606,"RA_OF_ASC_NODE":288.7312,"ARG_OF_PERICENTER":104.7565,"MEAN_ANOMALY":255.354,"EPHEMERIS_TYPE":0,"CLASSIFICATION_TYPE":"U","NORAD_CAT_ID":62453,"ELEMENT_SET_NO":999,"REV_AT_EPOCH":5723,"BSTAR":0.0019363063,"MEAN_MOTION_DOT":0.00057457,"MEAN_MOTION_DDOT":0},{"OBJECT_NAME":"STARLINK-11518 [DTC]","OBJECT_ID":"2024-254A","EPOCH":"2025-12-31T03:02:13.174368","MEAN_MOTION":15.70920798,"ECCENTRICITY":0.00021273,"INCLINATION":42.9993,"RA_OF_ASC_NODE":276.6522,"ARG_OF_PERICENTER":264.411,"MEAN_ANOMALY":95.6515,"EPHEMERIS_TYPE":0,"CLASSIFICATION_TYPE":"U","NORAD_CAT_ID":62462,"ELEMENT_SET_NO":999,"REV_AT_EPOCH":5862,"BSTAR":0.0015595775,"MEAN_MOTION_DOT":0.00205389,"MEAN_MOTION_DDOT":0}]
